[{"OBJECT_NAME":"SCS-01 D","OBJECT_ID":"2025-100D","EPOCH":"2026-03-09T18:08:45.040704","MEAN_MOTION":15.31902149,"ECCENTRICITY":0.00063457,"INCLINATION":97.373,"RA_OF_ASC_NODE":145.4097,"ARG_OF_PERICENTER":266.2302,"MEAN_ANOMALY":93.8214,"EPHEMERIS_TYPE":0,"CLASSIFICATION_TYPE":"U","NORAD_CAT_ID":63985,"ELEMENT_SET_NO":999,"REV_AT_EPOCH":4562,"BSTAR":0.0010528181,"MEAN_MOTION_DOT":0.00032471,"MEAN_MOTION_DDOT":0},{"OBJECT_NAME":"STARLINK-35135","OBJECT_ID":"2025-210H","EPOCH":"2026-03-09T23:06:59.058720","MEAN_MOTION":15.30197797,"ECCENTRICITY":9.846e-5,"INCLINATION":53.1613,"RA_OF_ASC_NODE":305.7579,"ARG_OF_PERICENTER":92.0819,"MEAN_ANOMALY":268.0294,"EPHEMERIS_TYPE":0,"CLASSIFICATION_TYPE":"U","NORAD_CAT_ID":65629,"ELEMENT_SET_NO":999,"REV_AT_EPOCH":2777,"BSTAR":0.0005981416,"MEAN_MOTION_DOT":0.00017396,"MEAN_MOTION_DDOT":0}]
